     3.02           N: GNSS NAV DATA    R: GLONASS          RINEX VERSION / TYPE
NetR9 5.43          SMO                 20210517 030402 UTC PGM / RUN BY / DATE
    18    18  2185     7                                    LEAP SECONDS
                                                            END OF HEADER
R07 2021 05 17 01 45 00 -.424403697252D-04  .000000000000D+00  .932100000000D+05
      .172443193359D+05  .101833152771D+01  .931322574615D-09  .000000000000D+00
      .148859448242D+05  .119710922241D+01  .000000000000D+00  .500000000000D+01
      .114770498047D+05 -.309788990021D+01 -.279396772385D-08  .000000000000D+00
R07 2021 05 17 02 45 00 -.424403697252D-04  .000000000000D+00  .959400000000D+05
      .193570986328D+05  .689220428467D-02  .186264514923D-08  .000000000000D+00
      .165550302734D+05 -.199786186218D+00  .000000000000D+00  .500000000000D+01
     -.847068359375D+03 -.357026195526D+01 -.186264514923D-08  .000000000000D+00
R09 2021 05 17 01 45 00 -.675208866596D-05  .181898940355D-11  .935700000000D+05
      .685599365234D+04 -.303492736816D+01 -.931322574615D-09  .000000000000D+00
      .103083027344D+05  .299547195435D+00  .000000000000D+00 -.200000000000D+01
      .223278486328D+05  .787408828735D+00 -.186264514923D-08  .000000000000D+00
R09 2021 05 17 02 15 00 -.674743205309D-05  .181898940355D-11  .936000000000D+05
      .134781054688D+04 -.303495883942D+01 -.186264514923D-08  .000000000000D+00
      .112517597656D+05  .743358612061D+00 -.931322574615D-09 -.200000000000D+01
      .228658203125D+05 -.193733215332D+00 -.186264514923D-08  .000000000000D+00
R09 2021 05 17 02 15 00 -.674743205309D-05  .181898940355D-11  .941700000000D+05
      .134781054688D+04 -.303495883942D+01 -.186264514923D-08  .000000000000D+00
      .112517597656D+05  .743358612061D+00 -.931322574615D-09 -.200000000000D+01
      .228658203125D+05 -.193733215332D+00 -.186264514923D-08  .000000000000D+00
R09 2021 05 17 02 15 00 -.674743205309D-05  .181898940355D-11  .947700000000D+05
      .134781054688D+04 -.303495883942D+01 -.186264514923D-08  .000000000000D+00
      .112517597656D+05  .743358612061D+00 -.931322574615D-09 -.200000000000D+01
      .228658203125D+05 -.193733215332D+00 -.186264514923D-08  .000000000000D+00
R09 2021 05 17 02 15 00 -.674743205309D-05  .181898940355D-11  .953700000000D+05
      .134781054688D+04 -.303495883942D+01 -.186264514923D-08  .000000000000D+00
      .112517597656D+05  .743358612061D+00 -.931322574615D-09 -.200000000000D+01
      .228658203125D+05 -.193733215332D+00 -.186264514923D-08  .000000000000D+00
R09 2021 05 17 02 45 00 -.674370676279D-05  .181898940355D-11  .954000000000D+05
     -.389518457031D+04 -.274534225464D+01 -.186264514923D-08  .000000000000D+00
      .129338325195D+05  .110333728790D+01 -.931322574615D-09 -.200000000000D+01
      .216386479492D+05 -.116116714478D+01 -.931322574615D-09  .000000000000D+00
R09 2021 05 17 02 45 00 -.674370676279D-05  .181898940355D-11  .959700000000D+05
     -.389518457031D+04 -.274534225464D+01 -.186264514923D-08  .000000000000D+00
      .129338325195D+05  .110333728790D+01 -.931322574615D-09 -.200000000000D+01
      .216386479492D+05 -.116116714478D+01 -.931322574615D-09  .000000000000D+00
R09 2021 05 17 02 45 00 -.674370676279D-05  .181898940355D-11  .965700000000D+05
     -.389518457031D+04 -.274534225464D+01 -.186264514923D-08  .000000000000D+00
      .129338325195D+05  .110333728790D+01 -.931322574615D-09 -.200000000000D+01
      .216386479492D+05 -.116116714478D+01 -.931322574615D-09  .000000000000D+00
R10 2021 05 17 02 45 00 -.706883147359D-04  .000000000000D+00  .960900000000D+05
      .128907221680D+05 -.272994518280D+01 -.931322574615D-09  .000000000000D+00
      .583468212891D+04  .999361991882D+00  .000000000000D+00 -.700000000000D+01
      .211975942383D+05  .139068412781D+01 -.279396772385D-08  .000000000000D+00
R10 2021 05 17 02 45 00 -.706883147359D-04  .000000000000D+00  .965700000000D+05
      .128907221680D+05 -.272994518280D+01 -.931322574615D-09  .000000000000D+00
      .583468212891D+04  .999361991882D+00  .000000000000D+00 -.700000000000D+01
      .211975942383D+05  .139068412781D+01 -.279396772385D-08  .000000000000D+00
R15 2021 05 17 01 45 00  .103808939457D-03  .000000000000D+00  .935700000000D+05
     -.245906831055D+05 -.647789001465D+00 -.186264514923D-08  .000000000000D+00
      .472004052734D+04  .216644287109D+00 -.931322574615D-09  .000000000000D+00
      .488075000000D+04 -.348633480072D+01  .186264514923D-08  .000000000000D+00
R15 2021 05 17 02 15 00  .103808939457D-03  .000000000000D+00  .936000000000D+05
     -.249569003906D+05  .238144874573D+00 -.186264514923D-08  .000000000000D+00
      .504629541016D+04  .105121612549D+00 -.931322574615D-09  .000000000000D+00
     -.150225146484D+04 -.355983734131D+01  .279396772385D-08  .000000000000D+00
R15 2021 05 17 02 15 00  .103808939457D-03  .000000000000D+00  .941700000000D+05
     -.249569003906D+05  .238144874573D+00 -.186264514923D-08  .000000000000D+00
      .504629541016D+04  .105121612549D+00 -.931322574615D-09  .000000000000D+00
     -.150225146484D+04 -.355983734131D+01  .279396772385D-08  .000000000000D+00
R15 2021 05 17 02 15 00  .103808939457D-03  .000000000000D+00  .947700000000D+05
     -.249569003906D+05  .238144874573D+00 -.186264514923D-08  .000000000000D+00
      .504629541016D+04  .105121612549D+00 -.931322574615D-09  .000000000000D+00
     -.150225146484D+04 -.355983734131D+01  .279396772385D-08  .000000000000D+00
R15 2021 05 17 02 15 00  .103808939457D-03  .000000000000D+00  .953700000000D+05
     -.249569003906D+05  .238144874573D+00 -.186264514923D-08  .000000000000D+00
      .504629541016D+04  .105121612549D+00 -.931322574615D-09  .000000000000D+00
     -.150225146484D+04 -.355983734131D+01  .279396772385D-08  .000000000000D+00
R15 2021 05 17 02 45 00  .103808008134D-03  .000000000000D+00  .954000000000D+05
     -.237778959961D+05  .105029392242D+01 -.931322574615D-09  .000000000000D+00
      .495920263672D+04 -.237065315247D+00  .000000000000D+00  .000000000000D+00
     -.776900390625D+04 -.335796070099D+01  .279396772385D-08  .000000000000D+00
R15 2021 05 17 02 45 00  .103808008134D-03  .000000000000D+00  .959700000000D+05
     -.237778959961D+05  .105029392242D+01 -.931322574615D-09  .000000000000D+00
      .495920263672D+04 -.237065315247D+00  .000000000000D+00  .000000000000D+00
     -.776900390625D+04 -.335796070099D+01  .279396772385D-08  .000000000000D+00
R15 2021 05 17 02 45 00  .103808008134D-03  .000000000000D+00  .965700000000D+05
     -.237778959961D+05  .105029392242D+01 -.931322574615D-09  .000000000000D+00
      .495920263672D+04 -.237065315247D+00  .000000000000D+00  .000000000000D+00
     -.776900390625D+04 -.335796070099D+01  .279396772385D-08  .000000000000D+00
R16 2021 05 17 01 45 00 -.151665881276D-04  .000000000000D+00  .935700000000D+05
     -.116448144531D+05 -.268240928650D+01 -.186264514923D-08  .000000000000D+00
      .111222441406D+05  .402205467224D+00 -.931322574615D-09 -.100000000000D+01
      .198039765625D+05 -.178924369812D+01  .000000000000D+00  .000000000000D+00
R16 2021 05 17 02 15 00 -.151665881276D-04  .000000000000D+00  .936000000000D+05
     -.159578637695D+05 -.207534217834D+01 -.279396772385D-08  .000000000000D+00
      .120919892578D+05  .643386840820D+00 -.931322574615D-09 -.100000000000D+01
      .158613159180D+05 -.256286525726D+01  .000000000000D+00  .000000000000D+00
R16 2021 05 17 02 15 00 -.151665881276D-04  .000000000000D+00  .941700000000D+05
     -.159578637695D+05 -.207534217834D+01 -.279396772385D-08  .000000000000D+00
      .120919892578D+05  .643386840820D+00 -.931322574615D-09 -.100000000000D+01
      .158613159180D+05 -.256286525726D+01  .000000000000D+00  .000000000000D+00
R16 2021 05 17 02 15 00 -.151665881276D-04  .000000000000D+00  .947700000000D+05
     -.159578637695D+05 -.207534217834D+01 -.279396772385D-08  .000000000000D+00
      .120919892578D+05  .643386840820D+00 -.931322574615D-09 -.100000000000D+01
      .158613159180D+05 -.256286525726D+01  .000000000000D+00  .000000000000D+00
R16 2021 05 17 02 15 00 -.151665881276D-04  .000000000000D+00  .953700000000D+05
     -.159578637695D+05 -.207534217834D+01 -.279396772385D-08  .000000000000D+00
      .120919892578D+05  .643386840820D+00 -.931322574615D-09 -.100000000000D+01
      .158613159180D+05 -.256286525726D+01  .000000000000D+00  .000000000000D+00
R16 2021 05 17 02 45 00 -.151665881276D-04  .000000000000D+00  .954000000000D+05
     -.190204262695D+05 -.130964946747D+01 -.279396772385D-08  .000000000000D+00
      .133062255859D+05  .665536880493D+00 -.931322574615D-09 -.100000000000D+01
      .106971586914D+05 -.313784503937D+01  .931322574615D-09  .000000000000D+00
R16 2021 05 17 02 45 00 -.151665881276D-04  .000000000000D+00  .959700000000D+05
     -.190204262695D+05 -.130964946747D+01 -.279396772385D-08  .000000000000D+00
      .133062255859D+05  .665536880493D+00 -.931322574615D-09 -.100000000000D+01
      .106971586914D+05 -.313784503937D+01  .931322574615D-09  .000000000000D+00
R16 2021 05 17 02 45 00 -.151665881276D-04  .000000000000D+00  .965700000000D+05
     -.190204262695D+05 -.130964946747D+01 -.279396772385D-08  .000000000000D+00
      .133062255859D+05  .665536880493D+00 -.931322574615D-09 -.100000000000D+01
      .106971586914D+05 -.313784503937D+01  .931322574615D-09  .000000000000D+00
R18 2021 05 17 01 45 00  .767810270190D-04  .909494701773D-12  .935700000000D+05
     -.141545258789D+05  .119502925873D+01 -.186264514923D-08  .000000000000D+00
      .109270024414D+05 -.219230079651D+01 -.186264514923D-08 -.300000000000D+01
      .181737304687D+05  .225502586365D+01  .000000000000D+00  .000000000000D+00
